{
 "generated_at": "2026-07-23T07:33:13Z",
 "sources": [
  {
   "name": "CelesTrak",
   "url": "https://celestrak.org/NORAD/elements/",
   "license": "frei verfügbar; Attribution. Ursprünglich USSPACECOM/Space-Track."
  },
  {
   "name": "GCAT (J. McDowell, planet4589.org)",
   "url": "https://planet4589.org/space/gcat/",
   "license": "CC-BY 4.0"
  }
 ],
 "satellites": [
  {
   "norad": 39260,
   "name": "FENGYUN 3C",
   "intl": "2013-052A",
   "group": "weather",
   "gcat": {
    "class": "C",
    "category": "MET",
    "owner": "NSMC",
    "state": "CN"
   },
   "omm": {
    "OBJECT_NAME": "FENGYUN 3C",
    "OBJECT_ID": "2013-052A",
    "EPOCH": "2026-07-22T22:42:02.327328",
    "MEAN_MOTION": 14.15762078,
    "ECCENTRICITY": 0.00134545,
    "INCLINATION": 98.5006,
    "RA_OF_ASC_NODE": 176.1838,
    "ARG_OF_PERICENTER": 281.8423,
    "MEAN_ANOMALY": 78.1243,
    "EPHEMERIS_TYPE": 0,
    "CLASSIFICATION_TYPE": "U",
    "NORAD_CAT_ID": 39260,
    "ELEMENT_SET_NO": 999,
    "REV_AT_EPOCH": 66362,
    "BSTAR": 0.000054445573,
    "MEAN_MOTION_DOT": 6.5e-7,
    "MEAN_MOTION_DDOT": 0
   }
  },
  {
   "norad": 43010,
   "name": "FENGYUN 3D",
   "intl": "2017-072A",
   "group": "weather",
   "gcat": {
    "class": "C",
    "category": "MET",
    "owner": "NSMC",
    "state": "CN"
   },
   "omm": {
    "OBJECT_NAME": "FENGYUN 3D",
    "OBJECT_ID": "2017-072A",
    "EPOCH": "2026-07-22T22:45:47.473632",
    "MEAN_MOTION": 14.19744409,
    "ECCENTRICITY": 0.00010464,
    "INCLINATION": 99.0155,
    "RA_OF_ASC_NODE": 179.0213,
    "ARG_OF_PERICENTER": 358.8244,
    "MEAN_ANOMALY": 1.2929,
    "EPHEMERIS_TYPE": 0,
    "CLASSIFICATION_TYPE": "U",
    "NORAD_CAT_ID": 43010,
    "ELEMENT_SET_NO": 999,
    "REV_AT_EPOCH": 45006,
    "BSTAR": -0.00013257599,
    "MEAN_MOTION_DOT": -0.00000327,
    "MEAN_MOTION_DDOT": 0
   }
  },
  {
   "norad": 49008,
   "name": "FENGYUN 3E",
   "intl": "2021-062A",
   "group": "weather",
   "gcat": {
    "class": "C",
    "category": "MET",
    "owner": "NSMC",
    "state": "CN"
   },
   "omm": {
    "OBJECT_NAME": "FENGYUN 3E",
    "OBJECT_ID": "2021-062A",
    "EPOCH": "2026-07-22T23:58:21.552384",
    "MEAN_MOTION": 14.19906308,
    "ECCENTRICITY": 0.0001833,
    "INCLINATION": 98.7513,
    "RA_OF_ASC_NODE": 207.009,
    "ARG_OF_PERICENTER": 26.2066,
    "MEAN_ANOMALY": 333.9203,
    "EPHEMERIS_TYPE": 0,
    "CLASSIFICATION_TYPE": "U",
    "NORAD_CAT_ID": 49008,
    "ELEMENT_SET_NO": 999,
    "REV_AT_EPOCH": 26166,
    "BSTAR": -0.000006695298,
    "MEAN_MOTION_DOT": -5.8e-7,
    "MEAN_MOTION_DDOT": 0
   }
  },
  {
   "norad": 57490,
   "name": "FENGYUN 3F",
   "intl": "2023-111A",
   "group": "weather",
   "gcat": {
    "class": "C",
    "category": "MET",
    "owner": "NSMC",
    "state": "CN"
   },
   "omm": {
    "OBJECT_NAME": "FENGYUN 3F",
    "OBJECT_ID": "2023-111A",
    "EPOCH": "2026-07-22T21:52:28.726176",
    "MEAN_MOTION": 14.19944297,
    "ECCENTRICITY": 0.00011234,
    "INCLINATION": 98.682,
    "RA_OF_ASC_NODE": 273.2515,
    "ARG_OF_PERICENTER": 74.9337,
    "MEAN_ANOMALY": 285.1964,
    "EPHEMERIS_TYPE": 0,
    "CLASSIFICATION_TYPE": "U",
    "NORAD_CAT_ID": 57490,
    "ELEMENT_SET_NO": 999,
    "REV_AT_EPOCH": 15393,
    "BSTAR": 0.000024754938,
    "MEAN_MOTION_DOT": 9e-8,
    "MEAN_MOTION_DDOT": 0
   }
  },
  {
   "norad": 56232,
   "name": "FENGYUN 3G",
   "intl": "2023-055A",
   "group": "weather",
   "gcat": {
    "class": "C",
    "category": "MET",
    "owner": "NSMC",
    "state": "CN"
   },
   "omm": {
    "OBJECT_NAME": "FENGYUN 3G",
    "OBJECT_ID": "2023-055A",
    "EPOCH": "2026-07-22T22:28:27.461280",
    "MEAN_MOTION": 15.54061298,
    "ECCENTRICITY": 0.0006816,
    "INCLINATION": 49.9912,
    "RA_OF_ASC_NODE": 161.6096,
    "ARG_OF_PERICENTER": 93.1017,
    "MEAN_ANOMALY": 267.073,
    "EPHEMERIS_TYPE": 0,
    "CLASSIFICATION_TYPE": "U",
    "NORAD_CAT_ID": 56232,
    "ELEMENT_SET_NO": 999,
    "REV_AT_EPOCH": 18556,
    "BSTAR": 0.00041376084,
    "MEAN_MOTION_DOT": 0.00027002,
    "MEAN_MOTION_DDOT": 0
   }
  },
  {
   "norad": 65815,
   "name": "FENGYUN 3H",
   "intl": "2025-219A",
   "group": "weather",
   "gcat": {
    "class": "C",
    "category": "MET",
    "owner": "NSMC",
    "state": "CN"
   },
   "omm": {
    "OBJECT_NAME": "FENGYUN 3H",
    "OBJECT_ID": "2025-219A",
    "EPOCH": "2026-07-22T06:34:41.948832",
    "MEAN_MOTION": 14.19925591,
    "ECCENTRICITY": 0.00009909,
    "INCLINATION": 98.677,
    "RA_OF_ASC_NODE": 143.3622,
    "ARG_OF_PERICENTER": 63.3834,
    "MEAN_ANOMALY": 296.7444,
    "EPHEMERIS_TYPE": 0,
    "CLASSIFICATION_TYPE": "U",
    "NORAD_CAT_ID": 65815,
    "ELEMENT_SET_NO": 999,
    "REV_AT_EPOCH": 4236,
    "BSTAR": 0.00003066786,
    "MEAN_MOTION_DOT": 2.2e-7,
    "MEAN_MOTION_DDOT": 0
   }
  },
  {
   "norad": 41882,
   "name": "FENGYUN 4A",
   "intl": "2016-077A",
   "group": "weather",
   "gcat": {
    "class": "C",
    "category": "MET",
    "owner": "NSMC",
    "state": "CN"
   },
   "omm": {
    "OBJECT_NAME": "FENGYUN 4A",
    "OBJECT_ID": "2016-077A",
    "EPOCH": "2026-07-22T22:10:31.611936",
    "MEAN_MOTION": 1.00264933,
    "ECCENTRICITY": 0.00080558,
    "INCLINATION": 2.411,
    "RA_OF_ASC_NODE": 79.8746,
    "ARG_OF_PERICENTER": 158.859,
    "MEAN_ANOMALY": 158.1683,
    "EPHEMERIS_TYPE": 0,
    "CLASSIFICATION_TYPE": "U",
    "NORAD_CAT_ID": 41882,
    "ELEMENT_SET_NO": 999,
    "REV_AT_EPOCH": 3528,
    "BSTAR": 0,
    "MEAN_MOTION_DOT": -0.00000355,
    "MEAN_MOTION_DDOT": 0
   }
  },
  {
   "norad": 42920,
   "name": "FORMOSAT-5",
   "intl": "2017-049A",
   "group": "resource",
   "gcat": {
    "class": "C",
    "category": "IMG/SCI",
    "owner": "NSPO",
    "state": "TW"
   },
   "omm": {
    "OBJECT_NAME": "FORMOSAT-5",
    "OBJECT_ID": "2017-049A",
    "EPOCH": "2026-07-22T21:55:41.441376",
    "MEAN_MOTION": 14.50894111,
    "ECCENTRICITY": 0.00108731,
    "INCLINATION": 98.224,
    "RA_OF_ASC_NODE": 278.4276,
    "ARG_OF_PERICENTER": 339.3989,
    "MEAN_ANOMALY": 20.6766,
    "EPHEMERIS_TYPE": 0,
    "CLASSIFICATION_TYPE": "U",
    "NORAD_CAT_ID": 42920,
    "ELEMENT_SET_NO": 999,
    "REV_AT_EPOCH": 47185,
    "BSTAR": 0.000026362246,
    "MEAN_MOTION_DOT": 6e-7,
    "MEAN_MOTION_DDOT": 0
   }
  },
  {
   "norad": 39150,
   "name": "GAOFEN-1",
   "intl": "2013-018A",
   "group": "resource",
   "gcat": {
    "class": "C",
    "category": "IMG",
    "owner": "CNSAS",
    "state": "CN"
   },
   "omm": {
    "OBJECT_NAME": "GAOFEN-1",
    "OBJECT_ID": "2013-018A",
    "EPOCH": "2026-07-22T23:31:06.983616",
    "MEAN_MOTION": 14.76525332,
    "ECCENTRICITY": 0.00177137,
    "INCLINATION": 97.9078,
    "RA_OF_ASC_NODE": 275.3169,
    "ARG_OF_PERICENTER": 146.676,
    "MEAN_ANOMALY": 213.5569,
    "EPHEMERIS_TYPE": 0,
    "CLASSIFICATION_TYPE": "U",
    "NORAD_CAT_ID": 39150,
    "ELEMENT_SET_NO": 999,
    "REV_AT_EPOCH": 71352,
    "BSTAR": 0.00010142466,
    "MEAN_MOTION_DOT": 0.00000658,
    "MEAN_MOTION_DDOT": 0
   }
  },
  {
   "norad": 43259,
   "name": "GAOFEN-1 02",
   "intl": "2018-031A",
   "group": "resource",
   "gcat": {
    "class": "C",
    "category": "IMG",
    "owner": "CNSAS",
    "state": "CN"
   },
   "omm": {
    "OBJECT_NAME": "GAOFEN-1 02",
    "OBJECT_ID": "2018-031A",
    "EPOCH": "2026-07-22T22:42:03.904128",
    "MEAN_MOTION": 14.76479408,
    "ECCENTRICITY": 0.00015697,
    "INCLINATION": 98.0507,
    "RA_OF_ASC_NODE": 266.3692,
    "ARG_OF_PERICENTER": 235.9364,
    "MEAN_ANOMALY": 124.1697,
    "EPHEMERIS_TYPE": 0,
    "CLASSIFICATION_TYPE": "U",
    "NORAD_CAT_ID": 43259,
    "ELEMENT_SET_NO": 999,
    "REV_AT_EPOCH": 44797,
    "BSTAR": 0.00012004499,
    "MEAN_MOTION_DOT": 0.00000784,
    "MEAN_MOTION_DDOT": 0
   }
  }
 ]
}
