GAOFEN-1                
1 39150U 13018A   26203.97994194  .00000658  00000+0  10142-3 0  9995
2 39150  97.9078 275.3169 0017713 146.6760 213.5569 14.76525332713529
FENGYUN 3C              
1 39260U 13052A   26203.94586027  .00000065  00000+0  54446-4 0  9992
2 39260  98.5006 176.1838 0013454 281.8423  78.1243 14.15762078663628
FENGYUN 4A              
1 41882U 16077A   26203.92397699 -.00000355  00000+0  00000+0 0  9993
2 41882   2.4110  79.8746 0008055 158.8590 158.1683  1.00264933 35286
FORMOSAT-5              
1 42920U 17049A   26203.91367409  .00000060  00000+0  26362-4 0  9998
2 42920  98.2240 278.4276 0010873 339.3989  20.6766 14.50894111471859
FENGYUN 3D              
1 43010U 17072A   26203.94846613 -.00000327  00000+0 -13258-3 0  9994
2 43010  99.0155 179.0213 0001046 358.8244   1.2929 14.19744409450068
GAOFEN-1 02             
1 43259U 18031A   26203.94587852  .00000784  00000+0  12004-3 0  9995
2 43259  98.0507 266.3692 0001569 235.9364 124.1697 14.76479408447972
FENGYUN 3E              
1 49008U 21062A   26203.99886056 -.00000058  00000+0 -66953-5 0  9994
2 49008  98.7513 207.0090 0001833  26.2066 333.9203 14.19906308261666
FENGYUN 3G              
1 56232U 23055A   26203.93642895  .00027002  00000+0  41376-3 0  9996
2 56232  49.9912 161.6096 0006816  93.1017 267.0730 15.54061298185566
FENGYUN 3F              
1 57490U 23111A   26203.91144359  .00000009  00000+0  24755-4 0  9997
2 57490  98.6820 273.2515 0001123  74.9337 285.1964 14.19944297153931
FENGYUN 3H              
1 65815U 25219A   26203.27409663  .00000022  00000+0  30668-4 0  9994
2 65815  98.6770 143.3622 0000990  63.3834 296.7444 14.19925591 42367
